SARSAT 7 (NOAA 15)      
1 25338U 98030A   21341.31883844  .00000049  00000+0  38929-4 0  9998
2 25338  98.6659   8.1610 0011161 133.9271 226.2832 14.26074348225887
METEOSAT-8 (MSG-1)      
1 27509U 02040B   21340.82725442  .00000134  00000+0  00000+0 0  9999
2 27509   7.6857  51.6527 0001812 166.6528 196.9552  1.00281323 70688
GPS BIIR-08             
1 27663U 03005A   21340.63736337 -.00000021  00000+0  00000+0 0  9992
2 27663  55.6486 280.7157 0123071  38.5044 188.8942  2.00575834138149
GPS BIIR-11             
1 28190U 04009A   21340.83592116 -.00000070  00000+0  00000+0 0  9994
2 28190  56.1094 341.6353 0087055 114.2406  58.5151  2.00564391129787
GPS BIIR-13             
1 28474U 04045A   21340.39344628 -.00000082  00000+0  00000+0 0  9996
2 28474  55.2747  31.2003 0208211 275.6344 205.4960  2.00548035125260
SARSAT 10 (NOAA 18)     
1 28654U 05018A   21341.48092963  .00000135  00000+0  96871-4 0  9994
2 28654  98.9749  46.8628 0014840 151.0480 209.1518 14.12664325852963
GPS BIIR-14M            
1 28874U 05038A   21340.81495427 -.00000068  00000+0  00000+0 0  9998
2 28874  56.1841 339.0605 0139832 272.4746 267.8273  2.00559108118678
METEOSAT-9 (MSG-2)      
1 28912U 05049B   21341.03494003  .00000019  00000+0  00000+0 0  9992
2 28912   5.5898  67.4753 0000413 168.6312 216.0708  1.00275180 58502
GOES 13                 
1 29155U 06018A   21340.92341233  .00000041  00000+0  00000+0 0  9997
2 29155   0.2969 103.0651 0006732 131.4615 235.2391  1.00271869 26800
SARSAT 11 (METOP-A)     
1 29499U 06044A   21340.94710913  .00000336  00000+0  54325-4 0  9995
2 29499  98.4772  14.2213 0197937 251.0439 177.4941 14.66847047782451
GPS BIIR-16M            
1 29601U 06052A   21340.13227907 -.00000018  00000+0  00000+0 0  9990
2 29601  55.6499 279.6665 0082074  69.9178 290.9698  2.00567247110233
GPS BIIR-17M            
1 32260U 07047A   21340.43596203  .00000053  00000+0  00000+0 0  9999
2 32260  53.2675 148.5427 0137118  60.3036 301.0505  2.00558650103642
GPS BIIR-18M            
1 32384U 07062A   21340.50850142 -.00000068  00000+0  00000+0 0  9993
2 32384  56.2972 339.8092 0015918 139.6445  45.3715  2.00551477102349
SARSAT 12 (NOAA 19)     
1 33591U 09005A   21341.31943167  .00000049  00000+0  51579-4 0  9993
2 33591  99.1705   6.2063 0014040  11.4230 348.7257 14.12513225661321
GOES 14                 
1 35491U 09033A   21340.87001021 -.00000089  00000+0  00000+0 0  9992
2 35491   0.1778 287.4959 0015416 294.7308  62.5323  1.00270263 45530
GOES 15                 
1 36411U 10008A   21340.58388594  .00000058  00000+0  00000+0 0  9995
2 36411   0.2053 276.3154 0001019  23.3204 218.1145  1.00279170 43095
GLONASS-K 1             
1 37372U 11009A   21340.52349128 -.00000056  00000+0  00000+0 0  9997
2 37372  65.9482   9.8221 0017567 231.0441 266.1689  2.13063254 83859
GPS BIIF-2              
1 37753U 11036A   21340.64161744 -.00000079  00000+0  00000+0 0  9994
2 37753  56.5116  36.2202 0109441  49.9779  15.1271  2.00564037 76119
GSAT0101 (GALILEO-PFM)  
1 37846U 11060A   21340.26454464 -.00000083  00000+0  00000+0 0  9991
2 37846  56.9188  26.5952 0001941 311.9751  48.0725  1.70474905 63055
GSAT0102 (GALILEO-FM2)  
1 37847U 11060B   21341.35806014 -.00000087  00000+0  00000+0 0  9999
2 37847  56.9198  26.5650 0003968 297.3588  60.2433  1.70475194 63062
LUCH 5A                 
1 37951U 11074B   21341.21109725 -.00000045  00000+0  00000+0 0  9994
2 37951   4.5362 101.5323 0001862 149.0922  68.6457  1.00267316 36614
METEOSAT-10 (MSG-3)     
1 38552U 12035B   21340.87776775  .00000063  00000+0  00000+0 0  9995
2 38552   1.2971  27.1114 0000899 162.8837 211.2616  1.00263989 34286
SARSAT 13 (METOP-B)     
1 38771U 12049A   21341.45705374  .00000034  00000+0  35334-4 0  9996
2 38771  98.6936  39.1531 0000818 167.6352 203.4142 14.21496386478456
GPS BIIF-3              
1 38833U 12053A   21340.53491791  .00000048  00000+0  00000+0 0  9995
2 38833  53.5478 211.2577 0119443  44.3319 316.7119  2.00559615 66272
GSAT0103 (GALILEO-FM3)  
1 38857U 12055A   21340.30503185  .00000064  00000+0  00000+0 0  9997
2 38857  55.0860 147.0105 0001667 224.8808 135.0921  1.70473621 56819
GSAT0104 (GALILEO-FM4)  
1 38858U 12055B   21339.68888158  .00000067  00000+0  00000+0 0  9996
2 38858  55.0860 147.0290 0001661 128.7866 231.2180  1.70473907 56807
GPS BIIF-4              
1 39166U 13023A   21340.39641145 -.00000066  00000+0  00000+0 0  9998
2 39166  55.8199 335.5252 0096585  34.6968 325.9392  2.00566849 62717
INSAT-3D                
1 39216U 13038B   21341.09493757 -.00000153  00000+0  00000+0 0  9999
2 39216   0.0636 270.3827 0001068 332.3178 309.6626  1.00270127 30723
GPS BIIF-5              
1 39533U 14008A   21340.39452707  .00000045  00000+0  00000+0 0  9990
2 39533  53.6463 216.7501 0054372 204.6247 155.2071  2.00570427 56515
LUCH 5V                 
1 39727U 14023A   21341.12492556 -.00000266  00000+0  00000+0 0  9996
2 39727   1.0589  69.9564 0001408 220.4203 285.4766  1.00271119545934
GPS BIIF-6              
1 39741U 14026A   21340.17351506 -.00000077  00000+0  00000+0 0  9998
2 39741  56.4769  35.7650 0026795 298.1885  61.6000  2.00569427 55366
GPS BIIF-7              
1 40105U 14045A   21340.26652792  .00000061  00000+0  00000+0 0  9998
2 40105  54.6540 154.5180 0021507 106.9869 253.2578  2.00564602 52907
GSAT0201 (GALILEO 5)    
1 40128U 14050A   21340.78640243 -.00000092  00000+0  00000+0 0  9999
2 40128  50.3961 339.9586 1635266 117.3289 260.2969  1.85519271 49583
GSAT0202 (GALILEO 6)    
1 40129U 14050B   21341.04812323 -.00000092  00000+0  00000+0 0  9990
2 40129  50.4241 339.0031 1632279 118.1424 259.3468  1.85519798 49782
GPS BIIF-8              
1 40294U 14068A   21340.13776972 -.00000015  00000+0  00000+0 0  9995
2 40294  55.6736  95.5818 0036726  55.2187 305.1032  2.00557764 52031
GLONASS-K 2             
1 40315U 14075A   21340.43028726  .00000024  00000+0  00000+0 0  9996
2 40315  63.7301 247.9349 0017347 211.6308 354.4669  2.13101334 54617
GPS BIIF-9              
1 40534U 15013A   21340.27084822 -.00000014  00000+0  00000+0 0  9993
2 40534  53.8316 272.6982 0065005  16.5301 343.6984  2.00564160 48656
GSAT0203 (GALILEO 7)    
1 40544U 15017A   21340.63277420 -.00000085  00000+0  00000+0 0  9994
2 40544  56.7138  26.6447 0005048 249.2423 110.7664  1.70475860 41672
GSAT0204 (GALILEO 8)    
1 40545U 15017B   21340.88520754 -.00000086  00000+0  00000+0 0  9994
2 40545  56.7196  26.6496 0004773 237.1241 122.8920  1.70475547  4062
GPS BIIF-10             
1 40730U 15033A   21340.43235843 -.00000066  00000+0  00000+0 0  9999
2 40730  55.3233 334.4442 0068863   1.5096 358.5181  2.00561950 46822
METEOSAT-11 (MSG-4)     
1 40732U 15034A   21340.81888147 -.00000002  00000+0  00000+0 0  9995
2 40732   0.4966 108.1606 0000379  15.3155 246.7865  1.00273721 23448
GSAT0205 (GALILEO 9)    
1 40889U 15045A   21340.65256647 -.00000018  00000+0  00000+0 0  9993
2 40889  55.7540 267.2895 0005606   2.6933 357.3356  1.70474505 38822
GSAT0206 (GALILEO 10)   
1 40890U 15045B   21340.87245790 -.00000019  00000+0  00000+0 0  9997
2 40890  55.7532 267.2795 0004118 350.2859   9.7328  1.70472716 38852
GPS BIIF-11             
1 41019U 15062A   21340.48282867 -.00000014  00000+0  00000+0 0  9998
2 41019  55.6647  95.4069 0074208 214.6715 144.8234  2.00563024 44668
ELEKTRO-L 2             
1 41105U 15074A   21341.39024372 -.00000114  00000+0  00000+0 0  9994
2 41105   2.5063  90.3696 0002531 124.9972 347.0220  1.00270503 21949
GSAT0209 (GALILEO 12)   
1 41174U 15079A   21340.46156167  .00000063  00000+0  00000+0 0  9992
2 41174  55.1021 146.7083 0002062 343.7973  16.1811  1.70473211 37169
GSAT0208 (GALILEO 11)   
1 41175U 15079B   21340.68121864  .00000062  00000+0  00000+0 0  9992
2 41175  55.1010 146.7011 0001478   0.7771 359.2074  1.70473200 37165
GPS BIIF-12             
1 41328U 16007A   21340.57694710  .00000060  00000+0  00000+0 0  9995
2 41328  54.8767 155.1292 0054189 224.8912 134.6780  2.00554561 42718
GSAT0211 (GALILEO 14)   
1 41549U 16030A   21340.80083733 -.00000019  00000+0  00000+0 0  9994
2 41549  55.8982 267.1941 0005080 328.5671  31.4291  1.70474248 34483
GSAT0210 (GALILEO 13)   
1 41550U 16030B   21339.92037906 -.00000016  00000+0  00000+0 0  9995
2 41550  55.8983 267.2198 0004137 304.7629  55.2209  1.70474264 34461
INSAT-3DR               
1 41752U 16054A   21341.08382734 -.00000075  00000+0  00000+0 0  9992
2 41752   0.1602  97.0339 0012829 171.1022 272.1457  1.00271655 19226
GSAT0207 (GALILEO 15)   
1 41859U 16069A   21339.58089306  .00000067  00000+0  00000+0 0  9997
2 41859  54.7612 146.9618 0001612 312.7327  47.2441  1.70473144 31191
GSAT0212 (GALILEO 16)   
1 41860U 16069B   21340.60748106  .00000062  00000+0  00000+0 0  9999
2 41860  54.7591 146.9312 0001759  23.7870 336.2061  1.70473195 31469
GSAT0213 (GALILEO 17)   
1 41861U 16069C   21340.38639348  .00000063  00000+0  00000+0 0  9993
2 41861  54.7616 146.9421 0001389 245.2961 114.6753  1.70473272 31327
GSAT0214 (GALILEO 18)   
1 41862U 16069D   21341.12009227  .00000061  00000+0  00000+0 0  9992
2 41862  54.7605 146.9165 0000550 228.3271 131.6517  1.70473284 31461
GOES 16                 
1 41866U 16071A   21341.17880394 -.00000246  00000+0  00000+0 0  9992
2 41866   0.0484 256.0735 0000598  40.1371 129.1578  1.00270881 18536
GSAT-17                 
1 42815U 17040B   21341.41178663 -.00000256  00000+0  00000+0 0  9991
2 42815   0.0570 108.1323 0006003 151.0758  58.9576  1.00270805 16299
GSAT0215 (GALILEO 19)   
1 43055U 17079A   21339.26425221 -.00000015  00000+0  00000+0 0  9998
2 43055  55.8746 267.0718 0003450 303.8122  56.1745  1.70473457 24772
GSAT0216 (GALILEO 20)   
1 43056U 17079B   21340.14321596 -.00000016  00000+0  00000+0 0  9999
2 43056  55.8743 267.0475 0005090 296.2681  63.7038  1.70473589 24806
GSAT0217 (GALILEO 21)   
1 43057U 17079C   21340.94999166 -.00000019  00000+0  00000+0 0  9995
2 43057  55.8721 267.0250 0004947 308.4595  51.5235  1.70473570 24808
